0 CBERS 1 DEB
1 32067U 99057QF  13290.67853219  .00002762  00000-0  85625-3 0  1363
2 32067 098.2807 251.4844 0005350 013.5431 346.9992 14.41910684328522
0 CBERS 1 DEB
1 32067U 99057QF  13294.70320302  .00004110  00000-0  12662-2 0  1373
2 32067 098.2837 255.3948 0005719 020.8117 339.6128 14.41960212329101
